start=new Date('2023-05-29T00:00:00.000Z').valueOf();
sats=[{"MEAN_MOTION_DOT":"0.00000925","TLE_LINE1":"1 53826U 22114J   23148.37807757  .00000925  00000-0  76187-4 0  9995","APOAPSIS":"540.275","PERIAPSIS":"539.202","LAUNCH_DATE":"2022-09-19","PERIOD":"95.437","MEAN_MOTION_DDOT":"0.0000000000000","RCS_SIZE":"LARGE","CLASSIFICATION_TYPE":"U","REV_AT_EPOCH":"3940","GP_ID":"232707538","MEAN_ELEMENT_THEORY":"SGP4","BSTAR":"0.00007618700000","EPOCH":"2023-05-28T09:04:25.902048","INCLINATION":"53.2156","DECAY_DATE":null,"FILE":"3919546","SITE":"AFETR","SEMIMAJOR_AXIS":"6917.873","OBJECT_NAME":"STARLINK-4756","CENTER_NAME":"EARTH","COUNTRY_CODE":"US","REF_FRAME":"TEME","RA_OF_ASC_NODE":"186.4669","OBJECT_TYPE":"PAYLOAD","NORAD_CAT_ID":"53826","ARG_OF_PERICENTER":"86.9811","MEAN_ANOMALY":"273.1270","ELEMENT_SET_NO":"999","TIME_SYSTEM":"UTC","ECCENTRICITY":"0.00007750","MEAN_MOTION":"15.08842280","TLE_LINE2":"2 53826  53.2156 186.4669 0000775  86.9811 273.1270 15.08842280 39406","OBJECT_ID":"2022-114J","EPHEMERIS_TYPE":"0"},{"MEAN_ELEMENT_THEORY":"SGP4","REV_AT_EPOCH":"3940","GP_ID":"232708790","BSTAR":"0.00004643000000","MEAN_MOTION_DDOT":"0.0000000000000","PERIOD":"95.438","CLASSIFICATION_TYPE":"U","RCS_SIZE":"LARGE","APOAPSIS":"540.498","TLE_LINE1":"1 53827U 22114K   23148.38913415  .00000451  00000-0  46430-4 0  9998","PERIAPSIS":"538.991","LAUNCH_DATE":"2022-09-19","MEAN_MOTION_DOT":"0.00000451","TIME_SYSTEM":"UTC","OBJECT_ID":"2022-114K","EPHEMERIS_TYPE":"0","TLE_LINE2":"2 53827  53.2147 186.5342 0001089  82.1631 277.9484 15.08840258 39405","MEAN_MOTION":"15.08840258","ECCENTRICITY":"0.00010890","ARG_OF_PERICENTER":"82.1631","ELEMENT_SET_NO":"999","MEAN_ANOMALY":"277.9484","CENTER_NAME":"EARTH","COUNTRY_CODE":"US","SEMIMAJOR_AXIS":"6917.880","OBJECT_NAME":"STARLINK-4764","NORAD_CAT_ID":"53827","OBJECT_TYPE":"PAYLOAD","RA_OF_ASC_NODE":"186.5342","REF_FRAME":"TEME","EPOCH":"2023-05-28T09:20:21.190560","INCLINATION":"53.2147","SITE":"AFETR","DECAY_DATE":null,"FILE":"3919546"},{"DECAY_DATE":null,"FILE":"3919533","SITE":"AFETR","INCLINATION":"53.2152","EPOCH":"2023-05-28T20:06:49.303296","REF_FRAME":"TEME","RA_OF_ASC_NODE":"184.3614","OBJECT_TYPE":"PAYLOAD","NORAD_CAT_ID":"53828","SEMIMAJOR_AXIS":"6917.871","OBJECT_NAME":"STARLINK-4760","CENTER_NAME":"EARTH","COUNTRY_CODE":"US","MEAN_ANOMALY":"273.9168","ELEMENT_SET_NO":"999","ARG_OF_PERICENTER":"86.1917","ECCENTRICITY":"0.00008110","TLE_LINE2":"2 53828  53.2152 184.3614 0000811  86.1917 273.9168 15.08842917 38939","MEAN_MOTION":"15.08842917","EPHEMERIS_TYPE":"0","OBJECT_ID":"2022-114L","TIME_SYSTEM":"UTC","MEAN_MOTION_DOT":"0.00000766","PERIAPSIS":"539.175","LAUNCH_DATE":"2022-09-19","TLE_LINE1":"1 53828U 22114L   23148.83807064  .00000766  00000-0  66217-4 0  9995","APOAPSIS":"540.298","RCS_SIZE":"LARGE","CLASSIFICATION_TYPE":"U","PERIOD":"95.437","MEAN_MOTION_DDOT":"0.0000000000000","BSTAR":"0.00006621700000","GP_ID":"232684310","REV_AT_EPOCH":"3893","MEAN_ELEMENT_THEORY":"SGP4"},{"MEAN_ANOMALY":"268.1487","ELEMENT_SET_NO":"999","ARG_OF_PERICENTER":"91.9622","TLE_LINE2":"2 53829  53.2160 186.5133 0001018  91.9622 268.1487 15.08836873 39403","MEAN_MOTION":"15.08836873","EPHEMERIS_TYPE":"0","OBJECT_ID":"2022-114M","ECCENTRICITY":"0.00010180","TIME_SYSTEM":"UTC","SITE":"AFETR","FILE":"3919546","DECAY_DATE":null,"INCLINATION":"53.2160","EPOCH":"2023-05-28T09:15:03.005280","OBJECT_TYPE":"PAYLOAD","RA_OF_ASC_NODE":"186.5133","NORAD_CAT_ID":"53829","REF_FRAME":"TEME","OBJECT_NAME":"STARLINK-4759","SEMIMAJOR_AXIS":"6917.890","CENTER_NAME":"EARTH","COUNTRY_CODE":"US","RCS_SIZE":"LARGE","CLASSIFICATION_TYPE":"U","PERIOD":"95.438","MEAN_MOTION_DDOT":"0.0000000000000","BSTAR":"-0.00001233900000","MEAN_ELEMENT_THEORY":"SGP4","REV_AT_EPOCH":"3940","GP_ID":"232707288","MEAN_MOTION_DOT":"-0.00000484","LAUNCH_DATE":"2022-09-19","PERIAPSIS":"539.051","APOAPSIS":"540.459","TLE_LINE1":"1 53829U 22114M   23148.38545145 -.00000484  00000-0 -12339-4 0  9990"},{"MEAN_MOTION_DOT":"0.00000122","LAUNCH_DATE":"2022-09-19","PERIAPSIS":"539.011","TLE_LINE1":"1 53830U 22114N   23148.83070571  .00000122  00000-0  25722-4 0  9995","APOAPSIS":"540.471","RCS_SIZE":"LARGE","CLASSIFICATION_TYPE":"U","PERIOD":"95.437","MEAN_MOTION_DDOT":"0.0000000000000","BSTAR":"0.00002572200000","GP_ID":"232708039","REV_AT_EPOCH":"3947","MEAN_ELEMENT_THEORY":"SGP4","DECAY_DATE":null,"FILE":"3919546","SITE":"AFETR","INCLINATION":"53.2147","EPOCH":"2023-05-28T19:56:12.973344","REF_FRAME":"TEME","RA_OF_ASC_NODE":"184.3153","OBJECT_TYPE":"PAYLOAD","NORAD_CAT_ID":"53830","OBJECT_NAME":"STARLINK-4761","SEMIMAJOR_AXIS":"6917.876","COUNTRY_CODE":"US","CENTER_NAME":"EARTH","MEAN_ANOMALY":"274.9082","ELEMENT_SET_NO":"999","ARG_OF_PERICENTER":"85.2031","ECCENTRICITY":"0.00010550","TLE_LINE2":"2 53830  53.2147 184.3153 0001055  85.2031 274.9082 15.08841501 39476","MEAN_MOTION":"15.08841501","OBJECT_ID":"2022-114N","EPHEMERIS_TYPE":"0","TIME_SYSTEM":"UTC"},{"SITE":"AFETR","FILE":"3919546","DECAY_DATE":null,"INCLINATION":"53.2157","EPOCH":"2023-05-28T09:09:44.256672","OBJECT_TYPE":"PAYLOAD","RA_OF_ASC_NODE":"186.4898","NORAD_CAT_ID":"53831","REF_FRAME":"TEME","OBJECT_NAME":"STARLINK-4649","SEMIMAJOR_AXIS":"6917.881","COUNTRY_CODE":"US","CENTER_NAME":"EARTH","MEAN_ANOMALY":"270.4653","ELEMENT_SET_NO":"999","ARG_OF_PERICENTER":"89.6454","TLE_LINE2":"2 53831  53.2157 186.4898 0000996  89.6454 270.4653 15.08839753 39401","MEAN_MOTION":"15.08839753","OBJECT_ID":"2022-114P","EPHEMERIS_TYPE":"0","ECCENTRICITY":"0.00009960","TIME_SYSTEM":"UTC","MEAN_MOTION_DOT":"0.00000061","LAUNCH_DATE":"2022-09-19","PERIAPSIS":"539.057","APOAPSIS":"540.435","TLE_LINE1":"1 53831U 22114P   23148.38176223  .00000061  00000-0  21890-4 0  9991","RCS_SIZE":"LARGE","CLASSIFICATION_TYPE":"U","PERIOD":"95.438","MEAN_MOTION_DDOT":"0.0000000000000","BSTAR":"0.00002189000000","MEAN_ELEMENT_THEORY":"SGP4","GP_ID":"232708290","REV_AT_EPOCH":"3940"},{"LAUNCH_DATE":"2022-09-19","PERIAPSIS":"539.001","TLE_LINE1":"1 53832U 22114Q   23148.82333532  .00000692  00000-0  61567-4 0  9994","APOAPSIS":"540.478","MEAN_MOTION_DOT":"0.00000692","BSTAR":"0.00006156700000","REV_AT_EPOCH":"3893","GP_ID":"232683809","MEAN_ELEMENT_THEORY":"SGP4","CLASSIFICATION_TYPE":"U","RCS_SIZE":"LARGE","MEAN_MOTION_DDOT":"0.0000000000000","PERIOD":"95.437","REF_FRAME":"TEME","NORAD_CAT_ID":"53832","OBJECT_TYPE":"PAYLOAD","RA_OF_ASC_NODE":"184.2696","COUNTRY_CODE":"US","CENTER_NAME":"EARTH","OBJECT_NAME":"STARLINK-4747","SEMIMAJOR_AXIS":"6917.875","DECAY_DATE":null,"FILE":"3919533","SITE":"AFETR","EPOCH":"2023-05-28T19:45:36.171648","INCLINATION":"53.2149","ECCENTRICITY":"0.00010680","EPHEMERIS_TYPE":"0","OBJECT_ID":"2022-114Q","TLE_LINE2":"2 53832  53.2149 184.2696 0001068  89.4672 270.6442 15.08841926 38936","MEAN_MOTION":"15.08841926","TIME_SYSTEM":"UTC","ELEMENT_SET_NO":"999","MEAN_ANOMALY":"270.6442","ARG_OF_PERICENTER":"89.4672"},{"ARG_OF_PERICENTER":"102.5825","MEAN_ANOMALY":"257.5281","ELEMENT_SET_NO":"999","TIME_SYSTEM":"UTC","ECCENTRICITY":"0.00010260","TLE_LINE2":"2 53833  53.2155 184.3386 0001026 102.5825 257.5281 15.08845292 39477","MEAN_MOTION":"15.08845292","EPHEMERIS_TYPE":"0","OBJECT_ID":"2022-114R","INCLINATION":"53.2155","EPOCH":"2023-05-28T20:01:30.825984","FILE":"3919546","DECAY_DATE":null,"SITE":"AFETR","SEMIMAJOR_AXIS":"6917.864","OBJECT_NAME":"STARLINK-4771","COUNTRY_CODE":"US","CENTER_NAME":"EARTH","REF_FRAME":"TEME","RA_OF_ASC_NODE":"184.3386","OBJECT_TYPE":"PAYLOAD","NORAD_CAT_ID":"53833","PERIOD":"95.437","MEAN_MOTION_DDOT":"0.0000000000000","RCS_SIZE":"LARGE","CLASSIFICATION_TYPE":"U","REV_AT_EPOCH":"3947","GP_ID":"232707789","MEAN_ELEMENT_THEORY":"SGP4","BSTAR":"-0.00005908900000","MEAN_MOTION_DOT":"-0.00001228","TLE_LINE1":"1 53833U 22114R   23148.83438456 -.00001228  00000-0 -59089-4 0  9991","APOAPSIS":"540.439","LAUNCH_DATE":"2022-09-19","PERIAPSIS":"539.019"},{"APOAPSIS":"540.439","TLE_LINE1":"1 53834U 22114S   23148.81596568  .00000759  00000-0  65766-4 0  9994","LAUNCH_DATE":"2022-09-19","PERIAPSIS":"539.039","MEAN_MOTION_DOT":"0.00000759","MEAN_ELEMENT_THEORY":"SGP4","GP_ID":"232684314","REV_AT_EPOCH":"3893","BSTAR":"0.00006576600000","MEAN_MOTION_DDOT":"0.0000000000000","PERIOD":"95.437","CLASSIFICATION_TYPE":"U","RCS_SIZE":"LARGE","COUNTRY_CODE":"US","CENTER_NAME":"EARTH","SEMIMAJOR_AXIS":"6917.874","OBJECT_NAME":"STARLINK-4737","NORAD_CAT_ID":"53834","RA_OF_ASC_NODE":"184.2244","OBJECT_TYPE":"PAYLOAD","REF_FRAME":"TEME","INCLINATION":"53.2153","EPOCH":"2023-05-28T19:34:59.434752","SITE":"AFETR","FILE":"3919533","DECAY_DATE":null,"TIME_SYSTEM":"UTC","OBJECT_ID":"2022-114S","EPHEMERIS_TYPE":"0","MEAN_MOTION":"15.08842166","TLE_LINE2":"2 53834  53.2153 184.2244 0001012  88.8899 271.2209 15.08842166 38930","ECCENTRICITY":"0.00010120","ARG_OF_PERICENTER":"88.8899","ELEMENT_SET_NO":"999","MEAN_ANOMALY":"271.2209"},{"FILE":"3919546","DECAY_DATE":null,"SITE":"AFETR","EPOCH":"2023-05-28T19:50:54.673152","INCLINATION":"53.2159","REF_FRAME":"TEME","RA_OF_ASC_NODE":"184.2929","OBJECT_TYPE":"PAYLOAD","NORAD_CAT_ID":"53835","OBJECT_NAME":"STARLINK-4783","SEMIMAJOR_AXIS":"6917.877","COUNTRY_CODE":"US","CENTER_NAME":"EARTH","MEAN_ANOMALY":"275.6970","ELEMENT_SET_NO":"999","ARG_OF_PERICENTER":"84.4149","ECCENTRICITY":"0.00011140","TLE_LINE2":"2 53835  53.2159 184.2929 0001114  84.4149 275.6970 15.08841066 39471","MEAN_MOTION":"15.08841066","OBJECT_ID":"2022-114T","EPHEMERIS_TYPE":"0","TIME_SYSTEM":"UTC","MEAN_MOTION_DOT":"0.00000361","LAUNCH_DATE":"2022-09-19","PERIAPSIS":"538.971","TLE_LINE1":"1 53835U 22114T   23148.82702168  .00000361  00000-0  40787-4 0  9996","APOAPSIS":"540.513","RCS_SIZE":"LARGE","CLASSIFICATION_TYPE":"U","PERIOD":"95.437","MEAN_MOTION_DDOT":"0.0000000000000","BSTAR":"0.00004078700000","GP_ID":"232708791","REV_AT_EPOCH":"3947","MEAN_ELEMENT_THEORY":"SGP4"}];
